[{"OBJECT_NAME":"NOVASAR 1","OBJECT_ID":"2018-071B","EPOCH":"2026-03-09T22:37:23.630304","MEAN_MOTION":14.96279869,"ECCENTRICITY":0.00025467,"INCLINATION":97.522,"RA_OF_ASC_NODE":305.2476,"ARG_OF_PERICENTER":88.2237,"MEAN_ANOMALY":271.9277,"EPHEMERIS_TYPE":0,"CLASSIFICATION_TYPE":"U","NORAD_CAT_ID":43619,"ELEMENT_SET_NO":999,"REV_AT_EPOCH":40809,"BSTAR":0.00014385278,"MEAN_MOTION_DOT":1.57e-5,"MEAN_MOTION_DDOT":0},{"OBJECT_NAME":"PSLV DEB","OBJECT_ID":"2001-049NS","EPOCH":"2026-03-09T05:19:14.224224","MEAN_MOTION":14.71401718,"ECCENTRICITY":0.01105498,"INCLINATION":97.2875,"RA_OF_ASC_NODE":339.6277,"ARG_OF_PERICENTER":290.8563,"MEAN_ANOMALY":68.0836,"EPHEMERIS_TYPE":0,"CLASSIFICATION_TYPE":"U","NORAD_CAT_ID":27655,"ELEMENT_SET_NO":999,"REV_AT_EPOCH":24688,"BSTAR":0.0017183831,"MEAN_MOTION_DOT":0.00011673,"MEAN_MOTION_DDOT":0}]
